{
  "links" : {
    "next" : "https://api.nasa.gov/neo/rest/v1/feed?start_date=2009-01-23&end_date=2009-01-23&detailed=true&api_key=t0TVs3DtDT2H8Oy2Zy8m2eVrNsAVKAexjcZXUckd",
    "prev" : "https://api.nasa.gov/neo/rest/v1/feed?start_date=2009-01-21&end_date=2009-01-21&detailed=true&api_key=t0TVs3DtDT2H8Oy2Zy8m2eVrNsAVKAexjcZXUckd",
    "self" : "https://api.nasa.gov/neo/rest/v1/feed?start_date=2009-01-22&end_date=2009-01-22&detailed=true&api_key=t0TVs3DtDT2H8Oy2Zy8m2eVrNsAVKAexjcZXUckd"
  },
  "element_count" : 6,
  "near_earth_objects" : {
    "2009-01-22" : [ {
      "links" : {
        "self" : "https://api.nasa.gov/neo/rest/v1/neo/3443812?api_key=t0TVs3DtDT2H8Oy2Zy8m2eVrNsAVKAexjcZXUckd"
      },
      "neo_reference_id" : "3443812",
      "name" : "(2009 AM)",
      "nasa_jpl_url" : "http://ssd.jpl.nasa.gov/sbdb.cgi?sstr=3443812",
      "absolute_magnitude_h" : 21.4,
      "estimated_diameter" : {
        "kilometers" : {
          "estimated_diameter_min" : 0.1394938229,
          "estimated_diameter_max" : 0.3119176705
        },
        "meters" : {
          "estimated_diameter_min" : 139.4938229344,
          "estimated_diameter_max" : 311.9176705226
        },
        "miles" : {
          "estimated_diameter_min" : 0.0866774163,
          "estimated_diameter_max" : 0.1938165949
        },
        "feet" : {
          "estimated_diameter_min" : 457.6569140361,
          "estimated_diameter_max" : 1023.3519701574
        }
      },
      "is_potentially_hazardous_asteroid" : false,
      "close_approach_data" : [ {
        "close_approach_date" : "2009-01-22",
        "epoch_date_close_approach" : 1232611200000,
        "relative_velocity" : {
          "kilometers_per_second" : "6.8236672868",
          "kilometers_per_hour" : "24565.2022323534",
          "miles_per_hour" : "15263.8613537642"
        },
        "miss_distance" : {
          "astronomical" : "0.2705386233",
          "lunar" : "105.2395248413",
          "kilometers" : "40472004",
          "miles" : "25148136"
        },
        "orbiting_body" : "Earth"
      } ],
      "orbital_data" : {
        "orbit_id" : "19",
        "orbit_determination_date" : "2017-04-06 09:01:43",
        "orbit_uncertainty" : "5",
        "minimum_orbit_intersection" : ".270112",
        "jupiter_tisserand_invariant" : "2.943",
        "epoch_osculation" : "2458000.5",
        "eccentricity" : ".5842242067977976",
        "semi_major_axis" : "3.00335688638535",
        "inclination" : "10.98597523353314",
        "ascending_node_longitude" : "290.8555075784018",
        "orbital_period" : "1901.11697667186",
        "perihelion_distance" : "1.248723091706166",
        "perihelion_argument" : "194.9693001423749",
        "aphelion_distance" : "4.757990681064535",
        "perihelion_time" : "2458658.816735923849",
        "mean_anomaly" : "235.3395883363933",
        "mean_motion" : ".1893623613998884",
        "equinox" : "J2000"
      }
    }, {
      "links" : {
        "self" : "https://api.nasa.gov/neo/rest/v1/neo/3742055?api_key=t0TVs3DtDT2H8Oy2Zy8m2eVrNsAVKAexjcZXUckd"
      },
      "neo_reference_id" : "3742055",
      "name" : "(2016 CB31)",
      "nasa_jpl_url" : "http://ssd.jpl.nasa.gov/sbdb.cgi?sstr=3742055",
      "absolute_magnitude_h" : 25.0,
      "estimated_diameter" : {
        "kilometers" : {
          "estimated_diameter_min" : 0.02658,
          "estimated_diameter_max" : 0.0594346868
        },
        "meters" : {
          "estimated_diameter_min" : 26.58,
          "estimated_diameter_max" : 59.4346868419
        },
        "miles" : {
          "estimated_diameter_min" : 0.0165160412,
          "estimated_diameter_max" : 0.0369309908
        },
        "feet" : {
          "estimated_diameter_min" : 87.2047272,
          "estimated_diameter_max" : 194.9956979785
        }
      },
      "is_potentially_hazardous_asteroid" : false,
      "close_approach_data" : [ {
        "close_approach_date" : "2009-01-22",
        "epoch_date_close_approach" : 1232611200000,
        "relative_velocity" : {
          "kilometers_per_second" : "21.6902441302",
          "kilometers_per_hour" : "78084.878868671",
          "miles_per_hour" : "48518.907094814"
        },
        "miss_distance" : {
          "astronomical" : "0.4479548475",
          "lunar" : "174.2544250488",
          "kilometers" : "67013088",
          "miles" : "41640004"
        },
        "orbiting_body" : "Earth"
      } ],
      "orbital_data" : {
        "orbit_id" : "13",
        "orbit_determination_date" : "2017-08-10 06:19:42",
        "orbit_uncertainty" : "7",
        "minimum_orbit_intersection" : ".0166649",
        "jupiter_tisserand_invariant" : "3.980",
        "epoch_osculation" : "2458000.5",
        "eccentricity" : ".4592497188811723",
        "semi_major_axis" : "1.766895972961067",
        "inclination" : "1.227014954753077",
        "ascending_node_longitude" : "90.84419414907713",
        "orbital_period" : "857.8569977130385",
        "perihelion_distance" : ".9554494940864214",
        "perihelion_argument" : "96.24828114149207",
        "aphelion_distance" : "2.578342451835712",
        "perihelion_time" : "2458326.009054416721",
        "mean_anomaly" : "223.4000073410619",
        "mean_motion" : ".4196503624260503",
        "equinox" : "J2000"
      }
    }, {
      "links" : {
        "self" : "https://api.nasa.gov/neo/rest/v1/neo/3742128?api_key=t0TVs3DtDT2H8Oy2Zy8m2eVrNsAVKAexjcZXUckd"
      },
      "neo_reference_id" : "3742128",
      "name" : "(2016 CZ31)",
      "nasa_jpl_url" : "http://ssd.jpl.nasa.gov/sbdb.cgi?sstr=3742128",
      "absolute_magnitude_h" : 22.2,
      "estimated_diameter" : {
        "kilometers" : {
          "estimated_diameter_min" : 0.096506147,
          "estimated_diameter_max" : 0.2157943048
        },
        "meters" : {
          "estimated_diameter_min" : 96.5061469579,
          "estimated_diameter_max" : 215.7943048444
        },
        "miles" : {
          "estimated_diameter_min" : 0.059966121,
          "estimated_diameter_max" : 0.134088323
        },
        "feet" : {
          "estimated_diameter_min" : 316.6212271853,
          "estimated_diameter_max" : 707.9865871058
        }
      },
      "is_potentially_hazardous_asteroid" : false,
      "close_approach_data" : [ {
        "close_approach_date" : "2009-01-22",
        "epoch_date_close_approach" : 1232611200000,
        "relative_velocity" : {
          "kilometers_per_second" : "24.2172338908",
          "kilometers_per_hour" : "87182.0420069401",
          "miles_per_hour" : "54171.5304903679"
        },
        "miss_distance" : {
          "astronomical" : "0.3285390227",
          "lunar" : "127.8016738892",
          "kilometers" : "49148736",
          "miles" : "30539610"
        },
        "orbiting_body" : "Earth"
      } ],
      "orbital_data" : {
        "orbit_id" : "8",
        "orbit_determination_date" : "2017-04-06 08:28:34",
        "orbit_uncertainty" : "7",
        "minimum_orbit_intersection" : ".0181889",
        "jupiter_tisserand_invariant" : "4.507",
        "epoch_osculation" : "2458000.5",
        "eccentricity" : ".4884897466487643",
        "semi_major_axis" : "1.437964443832444",
        "inclination" : "14.55006435266661",
        "ascending_node_longitude" : "309.6125518904748",
        "orbital_period" : "629.8260916908905",
        "perihelion_distance" : ".7355335569748019",
        "perihelion_argument" : "76.04628307649516",
        "aphelion_distance" : "2.140395330690085",
        "perihelion_time" : "2457952.999664771351",
        "mean_anomaly" : "27.15054347209591",
        "mean_motion" : ".5715863549468236",
        "equinox" : "J2000"
      }
    } ]
  }
}